[{"OBJECT_NAME":"STARLINK-36506","OBJECT_ID":"2026-005L","EPOCH":"2026-03-09T11:03:20.861568","MEAN_MOTION":15.27599478,"ECCENTRICITY":0.00010431,"INCLINATION":42.9969,"RA_OF_ASC_NODE":239.0803,"ARG_OF_PERICENTER":258.6367,"MEAN_ANOMALY":101.4367,"EPHEMERIS_TYPE":0,"CLASSIFICATION_TYPE":"U","NORAD_CAT_ID":67414,"ELEMENT_SET_NO":999,"REV_AT_EPOCH":866,"BSTAR":0.0010330166,"MEAN_MOTION_DOT":0.0002829,"MEAN_MOTION_DDOT":0},{"OBJECT_NAME":"ELECTRON KICK STAGE R\/B","OBJECT_ID":"2024-047B","EPOCH":"2026-03-09T21:11:54.433824","MEAN_MOTION":15.27307897,"ECCENTRICITY":0.00092426,"INCLINATION":97.6338,"RA_OF_ASC_NODE":46.9382,"ARG_OF_PERICENTER":20.6031,"MEAN_ANOMALY":339.5579,"EPHEMERIS_TYPE":0,"CLASSIFICATION_TYPE":"U","NORAD_CAT_ID":59225,"ELEMENT_SET_NO":999,"REV_AT_EPOCH":10999,"BSTAR":0.00091229405,"MEAN_MOTION_DOT":0.00024409,"MEAN_MOTION_DDOT":0}]
